STARLINK-30494          
1 57970U 23151G   26068.36049035 -.00001272  00000+0 -35691-4 0  9993
2 57970  43.0027 192.4566 0001155 241.5536 118.5200 15.28417441137406
STARLINK-32421          
1 61628U 24191H   26067.30702964 -.00001831  00000+0 -57062-4 0  9990
2 61628  42.9973 162.4259 0000402 213.4244 146.6582 15.27576324 77327
